{
  "type": "FeatureCollection",
  "features": [
    {
      "type": "Feature",
      "properties": {
        "norad_id": 30110,
        "name": "FENGYUN 1C DEB",
        "group": "fengyun-1c-debris",
        "lat": 49.82853153621755,
        "lon": 89.94381222565482,
        "alt_km": 979.2516968805958,
        "timestamp": "2025-12-18T08:58:43.685509+00:00",
        "meta_object_name": "FENGYUN 1C DEB",
        "meta_object_id": "1999-025RP",
        "meta_epoch": "2025-12-17T06:10:52.069440",
        "meta_mean_motion": 13.56226465,
        "meta_eccentricity": 0.02674297,
        "meta_inclination": 98.9078,
        "meta_ra_of_asc_node": 99.639,
        "meta_arg_of_pericenter": 341.4232,
        "meta_mean_anomaly": 17.7289,
        "meta_ephemeris_type": 0,
        "meta_classification_type": "U",
        "meta_norad_cat_id": 30110,
        "meta_element_set_no": 999,
        "meta_rev_at_epoch": 93576,
        "meta_bstar": 0.00024140659,
        "meta_mean_motion_dot": 1.74e-06,
        "meta_mean_motion_ddot": 0,
        "tle_line1": "1 30110U 99025RP  25351.25754710  .00000174  00000+0  24141-3 0  9993",
        "tle_line2": "2 30110  98.9078  99.6390 0267429 341.4232  17.7289 13.56226465935767"
      },
      "geometry": {
        "type": "Point",
        "coordinates": [
          89.94381222565482,
          49.82853153621755
        ]
      }
    },
    {
      "type": "Feature",
      "properties": {
        "norad_id": 30112,
        "name": "FENGYUN 1C DEB",
        "group": "fengyun-1c-debris",
        "lat": 42.353427923370596,
        "lon": 155.19319027760378,
        "alt_km": 710.4367113814924,
        "timestamp": "2025-12-18T08:58:43.685520+00:00",
        "meta_object_name": "FENGYUN 1C DEB",
        "meta_object_id": "1999-025RR",
        "meta_epoch": "2025-12-17T12:05:41.415648",
        "meta_mean_motion": 14.22235723,
        "meta_eccentricity": 0.02018477,
        "meta_inclination": 99.2817,
        "meta_ra_of_asc_node": 325.7033,
        "meta_arg_of_pericenter": 94.1456,
        "meta_mean_anomaly": 268.2816,
        "meta_ephemeris_type": 0,
        "meta_classification_type": "U",
        "meta_norad_cat_id": 30112,
        "meta_element_set_no": 999,
        "meta_rev_at_epoch": 97650,
        "meta_bstar": 0.00046371061,
        "meta_mean_motion_dot": 1.217e-05,
        "meta_mean_motion_ddot": 0,
        "tle_line1": "1 30112U 99025RR  25351.50395157  .00001217  00000+0  46371-3 0  9997",
        "tle_line2": "2 30112  99.2817 325.7033 0201847  94.1456 268.2816 14.22235723976500"
      },
      "geometry": {
        "type": "Point",
        "coordinates": [
          155.19319027760378,
          42.353427923370596
        ]
      }
    },
    {
      "type": "Feature",
      "properties": {
        "norad_id": 30113,
        "name": "FENGYUN 1C DEB",
        "group": "fengyun-1c-debris",
        "lat": 55.28148007620722,
        "lon": 38.196726407716454,
        "alt_km": 756.8413922070931,
        "timestamp": "2025-12-18T08:58:43.685530+00:00",
        "meta_object_name": "FENGYUN 1C DEB",
        "meta_object_id": "1999-025RS",
        "meta_epoch": "2025-12-17T20:50:04.557120",
        "meta_mean_motion": 14.45392283,
        "meta_eccentricity": 0.00406025,
        "meta_inclination": 99.0375,
        "meta_ra_of_asc_node": 204.3792,
        "meta_arg_of_pericenter": 347.143,
        "meta_mean_anomaly": 24.6771,
        "meta_ephemeris_type": 0,
        "meta_classification_type": "U",
        "meta_norad_cat_id": 30113,
        "meta_element_set_no": 999,
        "meta_rev_at_epoch": 97983,
        "meta_bstar": 0.001514878,
        "meta_mean_motion_dot": 5.336e-05,
        "meta_mean_motion_ddot": 0,
        "tle_line1": "1 30113U 99025RS  25351.86810830  .00005336  00000+0  15149-2 0  9991",
        "tle_line2": "2 30113  99.0375 204.3792 0040602 347.1430  24.6771 14.45392283979838"
      },
      "geometry": {
        "type": "Point",
        "coordinates": [
          38.196726407716454,
          55.28148007620722
        ]
      }
    },
    {
      "type": "Feature",
      "properties": {
        "norad_id": 30114,
        "name": "FENGYUN 1C DEB",
        "group": "fengyun-1c-debris",
        "lat": -80.95767968012979,
        "lon": 99.24466905649241,
        "alt_km": 925.0279042235352,
        "timestamp": "2025-12-18T08:58:43.685541+00:00",
        "meta_object_name": "FENGYUN 1C DEB",
        "meta_object_id": "1999-025RT",
        "meta_epoch": "2025-12-17T13:34:49.738080",
        "meta_mean_motion": 14.0965566,
        "meta_eccentricity": 0.0082294,
        "meta_inclination": 98.7468,
        "meta_ra_of_asc_node": 353.7906,
        "meta_arg_of_pericenter": 106.2925,
        "meta_mean_anomaly": 21.6989,
        "meta_ephemeris_type": 0,
        "meta_classification_type": "U",
        "meta_norad_cat_id": 30114,
        "meta_element_set_no": 999,
        "meta_rev_at_epoch": 97222,
        "meta_bstar": 0.00012707314,
        "meta_mean_motion_dot": 1.88e-06,
        "meta_mean_motion_ddot": 0,
        "tle_line1": "1 30114U 99025RT  25351.56585345  .00000188  00000+0  12707-3 0  9997",
        "tle_line2": "2 30114  98.7468 353.7906 0082294 106.2925  21.6989 14.09655660972225"
      },
      "geometry": {
        "type": "Point",
        "coordinates": [
          99.24466905649241,
          -80.95767968012979
        ]
      }
    },
    {
      "type": "Feature",
      "properties": {
        "norad_id": 30115,
        "name": "FENGYUN 1C DEB",
        "group": "fengyun-1c-debris",
        "lat": -3.747163551330861,
        "lon": -161.05547768497962,
        "alt_km": 866.0454248173146,
        "timestamp": "2025-12-18T08:58:43.685552+00:00",
        "meta_object_name": "FENGYUN 1C DEB",
        "meta_object_id": "1999-025RU",
        "meta_epoch": "2025-12-17T15:47:03.634080",
        "meta_mean_motion": 14.19797126,
        "meta_eccentricity": 0.00675589,
        "meta_inclination": 98.622,
        "meta_ra_of_asc_node": 18.8161,
        "meta_arg_of_pericenter": 46.6951,
        "meta_mean_anomaly": 76.6367,
        "meta_ephemeris_type": 0,
        "meta_classification_type": "U",
        "meta_norad_cat_id": 30115,
        "meta_element_set_no": 999,
        "meta_rev_at_epoch": 97398,
        "meta_bstar": 0.00076694467,
        "meta_mean_motion_dot": 1.62e-05,
        "meta_mean_motion_ddot": 0,
        "tle_line1": "1 30115U 99025RU  25351.65768095  .00001620  00000+0  76694-3 0  9990",
        "tle_line2": "2 30115  98.6220  18.8161 0067558  46.6951  76.6367 14.19797126973984"
      },
      "geometry": {
        "type": "Point",
        "coordinates": [
          -161.05547768497962,
          -3.747163551330861
        ]
      }
    },
    {
      "type": "Feature",
      "properties": {
        "norad_id": 30116,
        "name": "FENGYUN 1C DEB",
        "group": "fengyun-1c-debris",
        "lat": -57.91586155063295,
        "lon": 79.16305251128257,
        "alt_km": 787.5730147262711,
        "timestamp": "2025-12-18T08:58:43.685562+00:00",
        "meta_object_name": "FENGYUN 1C DEB",
        "meta_object_id": "1999-025RV",
        "meta_epoch": "2025-12-17T17:09:51.670368",
        "meta_mean_motion": 14.29316155,
        "meta_eccentricity": 0.00205787,
        "meta_inclination": 99.398,
        "meta_ra_of_asc_node": 63.1347,
        "meta_arg_of_pericenter": 326.8922,
        "meta_mean_anomaly": 185.3919,
        "meta_ephemeris_type": 0,
        "meta_classification_type": "U",
        "meta_norad_cat_id": 30116,
        "meta_element_set_no": 999,
        "meta_rev_at_epoch": 97580,
        "meta_bstar": 0.0010812336,
        "meta_mean_motion_dot": 2.709e-05,
        "meta_mean_motion_ddot": 0,
        "tle_line1": "1 30116U 99025RV  25351.71518137  .00002709  00000+0  10812-2 0  9996",
        "tle_line2": "2 30116  99.3980  63.1347 0020578 326.8922 185.3919 14.29316155975801"
      },
      "geometry": {
        "type": "Point",
        "coordinates": [
          79.16305251128257,
          -57.91586155063295
        ]
      }
    },
    {
      "type": "Feature",
      "properties": {
        "norad_id": 30117,
        "name": "FENGYUN 1C DEB",
        "group": "fengyun-1c-debris",
        "lat": 48.43871830478748,
        "lon": 170.74639922907352,
        "alt_km": 808.4248326306943,
        "timestamp": "2025-12-18T08:58:43.685572+00:00",
        "meta_object_name": "FENGYUN 1C DEB",
        "meta_object_id": "1999-025RW",
        "meta_epoch": "2025-12-17T17:49:10.280640",
        "meta_mean_motion": 14.07164709,
        "meta_eccentricity": 0.01638582,
        "meta_inclination": 98.804,
        "meta_ra_of_asc_node": 340.0644,
        "meta_arg_of_pericenter": 195.0449,
        "meta_mean_anomaly": 339.3614,
        "meta_ephemeris_type": 0,
        "meta_classification_type": "U",
        "meta_norad_cat_id": 30117,
        "meta_element_set_no": 999,
        "meta_rev_at_epoch": 97059,
        "meta_bstar": 0.00012105274,
        "meta_mean_motion_dot": 1.86e-06,
        "meta_mean_motion_ddot": 0,
        "tle_line1": "1 30117U 99025RW  25351.74248010  .00000186  00000+0  12105-3 0  9995",
        "tle_line2": "2 30117  98.8040 340.0644 0163858 195.0449 339.3614 14.07164709970595"
      },
      "geometry": {
        "type": "Point",
        "coordinates": [
          170.74639922907352,
          48.43871830478748
        ]
      }
    }
  ]
}